#dP2023  6 18  6  0  0.00000000      96 __u+U ITR00 EXT  IAC
## 2267  21600.00000000   900.00000000 60113 0.2500000000000
+  118   C06C07C08C09C10C11C12C14C16C19C20C21C22C23C24C25C26
+        C27C28C29C30C32C33C34C35C36C37C38C39C40C41C42C43C44
+        C45C46E02E03E04E05E07E08E09E10E11E12E13E14E15E18E19
+        E21E24E25E26E27E30E31E33E34E36G01G02G03G04G05G06G07
+        G08G09G10G11G12G13G14G15G16G17G18G19G20G21G22G23G24
+        G25G26G27G28G29G30G31G32J02J03J04R01R02R03R04R05R07
+        R08R09R11R12R13R14R15R16R17R18R19R20R21R22R24R25  0
++         9 11 10  9 10  9  9  8  9  9  7  8  8  8 10  8  7
++         8  7  8  8  8  8  8  8  9  7 10  9 10  9  8  8  6
++         9  8  7  8  8  8  7  8  7  7  8  7  9  8  8  7  8
++         8  8  7  8  9  8  8  8  7  8  8  8  8  7  7  8  8
++         8  7  9  7  7  8  8  8  8  9  7  9  8  8  7  9  8
++         7  8  8  7  9  8  7  8  8  8  9  8  8  8  8  8  8
++         8  9  9  8  7  8  7  8  8  7 10 10  7  8  8  8  0
%c M  cc GPS ccc cccc cccc cccc cccc ccccc ccccc ccccc ccccc
%c cc cc ccc ccc cccc cccc cccc cccc ccccc ccccc ccccc ccccc
%f  0.0000000  0.000000000  0.00000000000  0.000000000000000
%f  0.0000000  0.000000000  0.00000000000  0.000000000000000
%i    0    0    0    0      0      0      0      0         0
%i    0    0    0    0      0      0      0      0         0
/* IAC                                ULTRA-RAPID PREDICTION
/* S/V CLOCKS ARE ALIGNED TO GNSS TIME                      
/* G:C1WC2W R:C1PC2P E:C1XC5X C:C2IC6I J:C1CC2S             
/* PCV:IGS20_2247 OL/AL:FES2004  NONE     YN ORB:CoN CLK:CoN
*  2023 06 19  3 30  0.00000000
PC06  -4047.517749  25837.798029 -32978.148057   -175.485347
PC07 -16554.123137  32689.971889  20750.134485   -194.074697
PC08  -5760.591781  40919.093392   8846.577476    455.142454
PC09   6099.344791  29678.446323 -28648.163085    517.479503
PC10  -8930.353523  32399.862374  25450.929724    -90.018112
PC11 -25890.824975 -10379.284245     28.321985    681.618300
PC12 -14113.756987 -17328.243160 -16673.875621    723.369407
PC14 -19317.823967  -1629.109055  20064.269242    431.889640
PC16  -5321.028043  24540.844734 -33591.468536     37.886866
PC19  23134.329847  -7194.746509 -13851.087796   -925.413832
PC20  13826.788657   8509.269229 -22690.461931    493.677213
PC21   4720.355883 -20390.804413  18488.356839   -924.917506
PC22  19653.706541 -19541.178690   3414.070772   -434.452387
PC23 -10599.116454  17760.225600 -18723.365080   -962.445868
PC24 -12924.459620 -21324.870711 -12513.342596     78.506072
PC25 -16640.005751  -1053.659820 -22380.982105    150.318925
PC26  -3022.104887 -27514.107694   3397.044470   -136.769806
PC27   5325.365770  17596.065708  20967.530586    157.249833
PC28 -13498.023737  11114.814774  21747.095739    116.862677
PC29  26362.558870   2172.165045  -8903.332936    135.952376
PC30  22157.559337  14179.218002   9274.890107     -1.336765
PC32  -4614.497336  20431.411937 -18415.184794   -547.327853
PC33 -23059.268289   7185.447910  13960.960274   -897.671700
PC34 -22980.225516 -13645.147329  -8079.686910    196.246093
PC35  13633.527470 -11380.880920 -21533.128829    605.167818
PC36  16690.815842   2337.924944  22269.928918   -375.367433
PC37   1661.377859  27513.250427  -4411.377979   -786.389325
PC38  -9986.552340  37845.665304  15893.381089     86.054558
PC39 -10118.556617  21921.621537 -34500.981825     -3.389310
PC40 -23509.624994  27648.602116  21246.825753    -26.683412
PC41 -19953.381205  19307.365088  -2668.744935   -918.384786
PC42 -12681.499032  -9754.208232  22904.781707   -643.933525
PC43 -26567.796951  -2829.989372   8075.472564     26.844077
PC44  -5743.165163 -17515.580669 -20977.036929    142.551290
PC45  10265.939111 -18156.161738  18535.764499   -112.116880
PC46  13448.919167  20268.595997  13711.776251    -62.581928
PE02 -16359.843760  22775.291726  -9495.882650     44.880174
PE03 -21162.126188  13894.758991 -15323.144618    -27.768501
PE04    900.936660 -17205.566701  24081.076686   -147.948901
PE05 -29388.748577   2361.347279   2598.937887    -56.672057
PE07  20100.651330  10581.670105 -18975.567498    -53.720628
PE08  -1276.803584  17087.374462 -24129.891159   -101.225762
PE09 -19924.645182 -10550.883575  19177.101882    -55.116735
PE10 -14455.739042 -25002.883251  -6491.251763   -542.264343
PE11 -20091.181486 -21369.207081   4024.089008   2261.343481
PE12  -6962.077190 -24576.087383 -14983.019165   -585.352820
PE13  19833.015491  21717.472939  -3318.192017    -19.290598
PE14  -8171.845843  14605.962778  16920.812355    258.160157
PE15   6737.455773  24430.511105  15287.337925    -30.557931
PE18  15174.608489 -18552.085687 -21501.717530    198.436589
PE19  23229.680265 -12592.422911  13355.825906  -2267.202011
PE21  18731.104079  -5595.584352  22228.230322   -535.820930
PE24 -10003.230605 -16454.891429 -22487.248468   -162.875209
PE25 -18673.846221   5214.715908 -22360.031374   -606.986453
PE26  21024.093258   5537.605814 -20091.457781    138.291931
PE27  10447.826462  15784.291076  22761.519891    -78.219692
PE30  -4369.604749  27728.583104   9397.148509   -267.045510
PE31   3904.386117 -27629.121238  -9871.707132   -526.188767
PE33  10217.885303 -12706.262127 -24709.087821   -442.977110
PE34 -10075.857008  12849.502855  24676.429071    -51.576718
PE36 -21144.820925  -6344.912329  19716.801493    -73.388972
PG01 -19291.985478 -10614.467589  14761.980311    177.528463
PG02 -20853.403892 -13417.689100  10212.852063   -584.438533
PG03 -15903.925966    928.521970  21092.064817   -265.282270
PG04 -26367.109222   -631.317614   3635.797619     72.207322
PG05   8552.298776  15683.386583 -19796.543784   -131.654438
PG06   1120.572234  20557.522653  16783.978807    584.245684
PG07 -14789.853510   5222.871849 -21023.569945    148.500867
PG08 -21264.104513  -7386.072543 -14475.099017   -128.082166
PG09 -24777.337646   7533.032748  -6067.629955   -132.426516
PG10  10889.963711 -24029.855941   -384.767835    -41.744628
PG11  12346.038369  23283.996619   3496.848421   -241.219001
PG12  14934.488179   3442.915602  21406.509186   -390.340981
PG13  14124.303394  13152.267454 -18518.306336    535.920178
PG14 -13508.313633  22515.458556  -3378.498678     95.243924
PG15  22213.473566   5276.116912 -14247.052483     50.174545
PG16  -4079.812661 -18865.068222 -18346.846864   -490.008338
PG17 -13432.933030  13512.176821  18979.621148    718.814815
PG18  12373.070850  -8364.774964 -21965.415198   -313.176620
PG19  -4892.847659  14571.083775  21398.653827    332.504491
PG20   3605.582225  23065.144332 -12804.472679    427.239317
PG21 -20711.165822 -15938.509927   7387.464295    152.985639
PG22   1009.626420 -15393.127740  22069.136208    500.080229
PG23  15987.584107 -17253.405406 -12175.932327     34.570766
PG24  21081.606615  12743.418155  10095.701648   -229.710813
PG25  17385.205901 -10107.265609  16902.733164    450.736019
PG26   2671.001053 -24993.545637  -8143.514718    238.715568
PG27 -10666.753891 -13217.257965 -20771.325996     13.666044
PG28     88.317531 -19850.584296  17627.701562     83.471236
PG29  25995.499583  -3743.848482  -4351.509396   -603.231345
PG30  -7342.354363  15357.900597 -20209.398408   -510.095727
PG31  -9012.166189 -23261.544081   8291.643320   -218.445514
PG32  10082.136998 -14986.373075  19589.705899   -503.330643
PJ02 -25781.723542  31528.934074  -6080.396517     -0.636612
PJ03 -25704.948639  23165.063511  29243.590849      6.900796
PJ04 -33308.819469  25802.305627   2954.354740     95.572299
PR01    654.971788 -12717.771173  22108.153194     59.719669
PR02 -15964.442601  -1770.802693  19883.476067    -22.670675
PR03 -22852.706762   9727.675083   5983.938173     79.954221
PR04 -17140.987353  15384.486081 -10941.965151    191.772168
PR05  -2155.070790  12839.432713 -21925.866738    114.409368
PR07  22804.141573 -10180.317677  -5036.374620     58.348797
PR08  16801.688733 -15585.379223  11232.848716    -71.319278
PR09  10009.711697  12777.140518  19669.820503    126.593410
PR11   6151.825486 -20900.540604  13295.166232    -83.182542
PR12  -2575.475251 -24782.428598  -5409.733396     28.277908
PR13  -9122.682783 -14810.868149 -18667.204951    -36.234301
PR14 -10795.099448   5999.758922 -22299.600165     24.830258
PR15  -5883.552154  21630.574007 -12141.595709     88.481548
PR16   2609.497468  24823.688433   5178.608806     15.791029
PR17 -19412.949901  -2927.581771  16262.307727    640.297047
PR18  -6786.582373   8106.264407  23223.018945     87.327970
PR19   7686.379634  15092.958083  19067.738753   -236.770762
PR20  21121.721313  14236.102437    913.177183    -95.013529
PR21  18680.259980   2191.260275 -17252.415042    -16.320885
PR22   6329.465368  -8845.900276 -23051.110322     82.222251
PR24 -21780.192937 -13258.409647   -257.757276    -12.547023
PR25  19469.957586   3738.498576 -16063.068175     58.958352
EOF
